CAPELLA-11 (ACADIA-1)   
1 57693U 23126A   26194.10121632  .00002203  00000+0  28325-3 0  9991
2 57693  53.0082  72.3940 0002120 123.6112 236.5070 14.84908624155972
CAPELLA-14 (ACADIA-4)   
1 59444U 24066C   26194.24823292  .00006954  00000+0  45541-3 0  9993
2 59444  45.6044 118.0658 0000749  18.4375 341.6537 15.08425491116420
CAPELLA-13 (ACADIA-3)   
1 60419U 24142A   26194.70341032  .00002327  00000+0  27894-3 0  9991
2 60419  53.0057 301.8247 0001344  91.2779 268.8355 14.87654542104350
CAPELLA-15 (ACADIA-5)   
1 60544U 24149CE  26195.14161007  .00002293  00000+0  22931-3 0  9997
2 60544  97.6762 267.3709 0003562 350.1687   9.9462 14.92408383103879
CAPELLA-17 (ACADIA-7)   
1 64583U 25135BH  26194.90499154  .00003106  00000+0  31498-3 0  9992
2 64583  97.7707 308.1326 0004058 255.6063 104.4705 14.91611748 57838
CAPELLA-16 (ACADIA-6)   
1 65318U 25188D   26195.14958044  .00003625  00000+0  34493-3 0  9996
2 65318  97.7379 269.8971 0005735 139.1620 221.0031 14.94041737 47944
CAPELLA-19 (ACADIA-9)   
1 67384U 26004X   26194.91976400  .00002618  00000+0  30086-3 0  9994
2 67384  97.8003 192.8106 0001605  96.0865 264.0534 14.86655141 27240
CAPELLA-18 (ACADIA-8)   
1 67385U 26004Y   26194.99712264  .00000605  00000+0  74165-4 0  9990
2 67385  97.8020 193.0400 0001176  95.2201 264.9149 14.86642746 27268
CAPELLA-20 (ACADIA-10)  
1 68485U 26067BX  26194.85693368  .00002910  00000+0  29490-3 0  9990
2 68485  97.7585 152.7276 0000926 146.6185 213.5093 14.91676167 15706
